{
  "type": "FeatureCollection",
  "features": [
    {
      "type": "Feature",
      "properties": {
        "norad_id": 34722,
        "name": "COSMOS 2251 DEB",
        "group": "cosmos-2251-debris",
        "lat": -56.432517948023744,
        "lon": -175.50335260955026,
        "alt_km": 748.9643471142444,
        "timestamp": "2025-12-11T07:02:24.125907+00:00",
        "meta_object_name": "COSMOS 2251 DEB",
        "meta_object_id": "1993-036YQ",
        "meta_epoch": "2025-12-10T23:13:55.059168",
        "meta_mean_motion": 14.11925435,
        "meta_eccentricity": 0.01672209,
        "meta_inclination": 73.8737,
        "meta_ra_of_asc_node": 339.2282,
        "meta_arg_of_pericenter": 265.0827,
        "meta_mean_anomaly": 122.7739,
        "meta_ephemeris_type": 0,
        "meta_classification_type": "U",
        "meta_norad_cat_id": 34722,
        "meta_element_set_no": 999,
        "meta_rev_at_epoch": 86220,
        "meta_bstar": 0.0012297528,
        "meta_mean_motion_dot": 2.538e-05,
        "meta_mean_motion_ddot": 0,
        "tle_line1": "1 34722U 93036YQ  25344.96799837  .00002538  00000+0  12298-2 0  9996",
        "tle_line2": "2 34722  73.8737 339.2282 0167220 265.0827 122.7739 14.11925435862206"
      },
      "geometry": {
        "type": "Point",
        "coordinates": [
          -175.50335260955026,
          -56.432517948023744
        ]
      }
    },
    {
      "type": "Feature",
      "properties": {
        "norad_id": 34726,
        "name": "COSMOS 2251 DEB",
        "group": "cosmos-2251-debris",
        "lat": 20.3600759143098,
        "lon": -4.815869310473367,
        "alt_km": 708.9082968185267,
        "timestamp": "2025-12-11T07:02:24.125917+00:00",
        "meta_object_name": "COSMOS 2251 DEB",
        "meta_object_id": "1993-036YU",
        "meta_epoch": "2025-12-10T17:46:54.206688",
        "meta_mean_motion": 14.5946971,
        "meta_eccentricity": 0.00420714,
        "meta_inclination": 74.0292,
        "meta_ra_of_asc_node": 350.1366,
        "meta_arg_of_pericenter": 141.5987,
        "meta_mean_anomaly": 218.8186,
        "meta_ephemeris_type": 0,
        "meta_classification_type": "U",
        "meta_norad_cat_id": 34726,
        "meta_element_set_no": 999,
        "meta_rev_at_epoch": 88473,
        "meta_bstar": 0.00061180425,
        "meta_mean_motion_dot": 2.909e-05,
        "meta_mean_motion_ddot": 0,
        "tle_line1": "1 34726U 93036YU  25344.74090517  .00002909  00000+0  61180-3 0  9992",
        "tle_line2": "2 34726  74.0292 350.1366 0042071 141.5987 218.8186 14.59469710884731"
      },
      "geometry": {
        "type": "Point",
        "coordinates": [
          -4.815869310473367,
          20.3600759143098
        ]
      }
    },
    {
      "type": "Feature",
      "properties": {
        "norad_id": 34728,
        "name": "COSMOS 2251 DEB",
        "group": "cosmos-2251-debris",
        "lat": -20.174668636197286,
        "lon": 80.62725813565466,
        "alt_km": 687.7817897955929,
        "timestamp": "2025-12-11T07:02:24.125927+00:00",
        "meta_object_name": "COSMOS 2251 DEB",
        "meta_object_id": "1993-036YW",
        "meta_epoch": "2025-12-09T11:41:21.069888",
        "meta_mean_motion": 14.70794927,
        "meta_eccentricity": 0.00409671,
        "meta_inclination": 74.0171,
        "meta_ra_of_asc_node": 258.0914,
        "meta_arg_of_pericenter": 56.6298,
        "meta_mean_anomaly": 303.8783,
        "meta_ephemeris_type": 0,
        "meta_classification_type": "U",
        "meta_norad_cat_id": 34728,
        "meta_element_set_no": 999,
        "meta_rev_at_epoch": 88752,
        "meta_bstar": 0.0012390282,
        "meta_mean_motion_dot": 7.642e-05,
        "meta_mean_motion_ddot": 0,
        "tle_line1": "1 34728U 93036YW  25343.48704942  .00007642  00000+0  12390-2 0  9995",
        "tle_line2": "2 34728  74.0171 258.0914 0040967  56.6298 303.8783 14.70794927887529"
      },
      "geometry": {
        "type": "Point",
        "coordinates": [
          80.62725813565466,
          -20.174668636197286
        ]
      }
    },
    {
      "type": "Feature",
      "properties": {
        "norad_id": 34729,
        "name": "COSMOS 2251 DEB",
        "group": "cosmos-2251-debris",
        "lat": 26.51171909275954,
        "lon": 173.07582491481608,
        "alt_km": 612.3038398180088,
        "timestamp": "2025-12-11T07:02:24.125937+00:00",
        "meta_object_name": "COSMOS 2251 DEB",
        "meta_object_id": "1993-036YX",
        "meta_epoch": "2025-12-10T19:48:52.202016",
        "meta_mean_motion": 14.82705163,
        "meta_eccentricity": 0.00118502,
        "meta_inclination": 74.0183,
        "meta_ra_of_asc_node": 2.221,
        "meta_arg_of_pericenter": 122.4592,
        "meta_mean_anomaly": 54.1081,
        "meta_ephemeris_type": 0,
        "meta_classification_type": "U",
        "meta_norad_cat_id": 34729,
        "meta_element_set_no": 999,
        "meta_rev_at_epoch": 88429,
        "meta_bstar": 0.0028828524,
        "meta_mean_motion_dot": 0.00023342,
        "meta_mean_motion_ddot": 0,
        "tle_line1": "1 34729U 93036YX  25344.82560419  .00023342  00000+0  28829-2 0  9993",
        "tle_line2": "2 34729  74.0183   2.2210 0011850 122.4592  54.1081 14.82705163884294"
      },
      "geometry": {
        "type": "Point",
        "coordinates": [
          173.07582491481608,
          26.51171909275954
        ]
      }
    },
    {
      "type": "Feature",
      "properties": {
        "norad_id": 34732,
        "name": "COSMOS 2251 DEB",
        "group": "cosmos-2251-debris",
        "lat": -21.557133478782116,
        "lon": -77.62136645104117,
        "alt_km": 718.9582222907984,
        "timestamp": "2025-12-11T07:02:24.125948+00:00",
        "meta_object_name": "COSMOS 2251 DEB",
        "meta_object_id": "1993-036ZA",
        "meta_epoch": "2025-12-10T07:00:38.330784",
        "meta_mean_motion": 14.47296381,
        "meta_eccentricity": 0.0040439,
        "meta_inclination": 74.0451,
        "meta_ra_of_asc_node": 97.7594,
        "meta_arg_of_pericenter": 249.2333,
        "meta_mean_anomaly": 138.9201,
        "meta_ephemeris_type": 0,
        "meta_classification_type": "U",
        "meta_norad_cat_id": 34732,
        "meta_element_set_no": 999,
        "meta_rev_at_epoch": 88108,
        "meta_bstar": 0.00026368,
        "meta_mean_motion_dot": 9.47e-06,
        "meta_mean_motion_ddot": 0,
        "tle_line1": "1 34732U 93036ZA  25344.29211031  .00000947  00000+0  26368-3 0  9994",
        "tle_line2": "2 34732  74.0451  97.7594 0040439 249.2333 138.9201 14.47296381881083"
      },
      "geometry": {
        "type": "Point",
        "coordinates": [
          -77.62136645104117,
          -21.557133478782116
        ]
      }
    },
    {
      "type": "Feature",
      "properties": {
        "norad_id": 34736,
        "name": "COSMOS 2251 DEB",
        "group": "cosmos-2251-debris",
        "lat": 8.380073208121381,
        "lon": -143.02793780367602,
        "alt_km": 441.35153459879893,
        "timestamp": "2025-12-11T07:02:24.125958+00:00",
        "meta_object_name": "COSMOS 2251 DEB",
        "meta_object_id": "1993-036ZE",
        "meta_epoch": "2025-12-10T10:06:25.505856",
        "meta_mean_motion": 15.45192633,
        "meta_eccentricity": 0.00172568,
        "meta_inclination": 74.0018,
        "meta_ra_of_asc_node": 41.2985,
        "meta_arg_of_pericenter": 348.8512,
        "meta_mean_anomaly": 11.2313,
        "meta_ephemeris_type": 0,
        "meta_classification_type": "U",
        "meta_norad_cat_id": 34736,
        "meta_element_set_no": 999,
        "meta_rev_at_epoch": 88412,
        "meta_bstar": 0.010786336,
        "meta_mean_motion_dot": 0.00552262,
        "meta_mean_motion_ddot": 0,
        "tle_line1": "1 34736U 93036ZE  25344.42112854  .00552262  00000+0  10786-1 0  9993",
        "tle_line2": "2 34736  74.0018  41.2985 0017256 348.8512  11.2313 15.45192633884129"
      },
      "geometry": {
        "type": "Point",
        "coordinates": [
          -143.02793780367602,
          8.380073208121381
        ]
      }
    },
    {
      "type": "Feature",
      "properties": {
        "norad_id": 34738,
        "name": "COSMOS 2251 DEB",
        "group": "cosmos-2251-debris",
        "lat": -56.151654374968686,
        "lon": -8.725531552170276,
        "alt_km": 723.9856100784746,
        "timestamp": "2025-12-11T07:02:24.125968+00:00",
        "meta_object_name": "COSMOS 2251 DEB",
        "meta_object_id": "1993-036ZG",
        "meta_epoch": "2025-12-10T11:57:12.732192",
        "meta_mean_motion": 14.46293866,
        "meta_eccentricity": 0.00473364,
        "meta_inclination": 74.0142,
        "meta_ra_of_asc_node": 147.4556,
        "meta_arg_of_pericenter": 294.1327,
        "meta_mean_anomaly": 126.971,
        "meta_ephemeris_type": 0,
        "meta_classification_type": "U",
        "meta_norad_cat_id": 34738,
        "meta_element_set_no": 999,
        "meta_rev_at_epoch": 87826,
        "meta_bstar": 0.00050317134,
        "meta_mean_motion_dot": 1.801e-05,
        "meta_mean_motion_ddot": 0,
        "tle_line1": "1 34738U 93036ZG  25344.49806403  .00001801  00000+0  50317-3 0  9996",
        "tle_line2": "2 34738  74.0142 147.4556 0047336 294.1327 126.9710 14.46293866878264"
      },
      "geometry": {
        "type": "Point",
        "coordinates": [
          -8.725531552170276,
          -56.151654374968686
        ]
      }
    }
  ]
}